[
  {
    "ORDINAL": "1",
    "COMMENT": "GENERATED VIA SPACETRACK.ORG API",
    "ORIGINATOR": "18 SPCS",
    "NORAD_CAT_ID": "489",
    "OBJECT_NAME": "SL-6 DEB",
    "OBJECT_TYPE": "DEBRIS",
    "CLASSIFICATION_TYPE": "U",
    "INTLDES": "62062E",
    "EPOCH": "1962-12-23 14:01:17",
    "EPOCH_MICROSECONDS": "273279",
    "MEAN_MOTION": "16.09340242",
    "ECCENTRICITY": "0.0015266",
    "INCLINATION": "64.7324",
    "RA_OF_ASC_NODE": "141.4791",
    "ARG_OF_PERICENTER": "352.8452",
    "MEAN_ANOMALY": "7.1564",
    "EPHEMERIS_TYPE": "0",
    "ELEMENT_SET_NO": "999",
    "REV_AT_EPOCH": "750",
    "BSTAR": "0",
    "MEAN_MOTION_DOT": "0.01885013",
    "MEAN_MOTION_DDOT": "0",
    "FILE": "33908",
    "TLE_LINE0": "0 SL-6 DEB",
    "TLE_LINE1": "1 00489U 62062  E 62357.58422770  .01885013 +00000-0 +00000-0 0  9991",
    "TLE_LINE2": "2 00489 064.7324 141.4791 0015266 352.8452 007.1564 16.09340242007501",
    "OBJECT_ID": "1962-062E",
    "OBJECT_NUMBER": "489",
    "SEMIMAJOR_AXIS": "6626.795",
    "PERIOD": "89.478",
    "APOGEE": "258.777",
    "PERIGEE": "238.544",
    "DECAYED": "1"
  },
  {
    "ORDINAL": "1",
    "COMMENT": "GENERATED VIA SPACETRACK.ORG API",
    "ORIGINATOR": "18 SPCS",
    "NORAD_CAT_ID": "490",
    "OBJECT_NAME": "FTV 1155",
    "OBJECT_TYPE": "PAYLOAD",
    "CLASSIFICATION_TYPE": "U",
    "INTLDES": "62066A",
    "EPOCH": "1962-12-06 23:17:45",
    "EPOCH_MICROSECONDS": "946752",
    "MEAN_MOTION": "16.29761534",
    "ECCENTRICITY": "0.0105453",
    "INCLINATION": "65.1898",
    "RA_OF_ASC_NODE": "106.0837",
    "ARG_OF_PERICENTER": "222.6144",
    "MEAN_ANOMALY": "136.5626",
    "EPHEMERIS_TYPE": "0",
    "ELEMENT_SET_NO": "999",
    "REV_AT_EPOCH": "34",
    "BSTAR": "0",
    "MEAN_MOTION_DOT": "0.03430281",
    "MEAN_MOTION_DDOT": "0",
    "FILE": "33908",
    "TLE_LINE0": "0 FTV 1155",
    "TLE_LINE1": "1 00490U 62066  A 62340.97067068  .03430281 +00000-0 +00000-0 0  9992",
    "TLE_LINE2": "2 00490 065.1898 106.0837 0105453 222.6144 136.5626 16.29761534000346",
    "OBJECT_ID": "1962-066A",
    "OBJECT_NUMBER": "490",
    "SEMIMAJOR_AXIS": "6571.322",
    "PERIOD": "88.356",
    "APOGEE": "262.483",
    "PERIGEE": "123.890",
    "DECAYED": "1"
  },
  {
    "ORDINAL": "1",
    "COMMENT": "GENERATED VIA SPACETRACK.ORG API",
    "ORIGINATOR": "18 SPCS",
    "NORAD_CAT_ID": "491",
    "OBJECT_NAME": "SPUTNIK 22 DEB",
    "OBJECT_TYPE": "DEBRIS",
    "CLASSIFICATION_TYPE": "U",
    "INTLDES": "62057N",
    "EPOCH": "1962-12-22 18:38:19",
    "EPOCH_MICROSECONDS": "78079",
    "MEAN_MOTION": "16.25357128",
    "ECCENTRICITY": "0.0059472",
    "INCLINATION": "64.9461",
    "RA_OF_ASC_NODE": "133.7224",
    "ARG_OF_PERICENTER": "314.2975",
    "MEAN_ANOMALY": "285.2407",
    "EPHEMERIS_TYPE": "0",
    "ELEMENT_SET_NO": "999",
    "REV_AT_EPOCH": "890",
    "BSTAR": "0",
    "MEAN_MOTION_DOT": "0.02412458",
    "MEAN_MOTION_DDOT": "0",
    "FILE": "33908",
    "TLE_LINE0": "0 SPUTNIK 22 DEB",
    "TLE_LINE1": "1 00491U 62057  N 62356.77660970  .02412458 +00000-0 +00000-0 0  9994",
    "TLE_LINE2": "2 00491 064.9461 133.7224 0059472 314.2975 285.2407 16.25357128008901",
    "OBJECT_ID": "1962-057N",
    "OBJECT_NUMBER": "491",
    "SEMIMAJOR_AXIS": "6583.188",
    "PERIOD": "88.596",
    "APOGEE": "244.204",
    "PERIGEE": "165.901",
    "DECAYED": "1"
  },
  {
    "ORDINAL": "1",
    "COMMENT": "GENERATED VIA SPACETRACK.ORG API",
    "ORIGINATOR": "18 SPCS",
    "NORAD_CAT_ID": "492",
    "OBJECT_NAME": "SPUTNIK 22 DEB",
    "OBJECT_TYPE": "DEBRIS",
    "CLASSIFICATION_TYPE": "U",
    "INTLDES": "62057P",
    "EPOCH": "1962-12-10 02:33:54",
    "EPOCH_MICROSECONDS": "146015",
    "MEAN_MOTION": "16.01934566",
    "ECCENTRICITY": "0.0148084",
    "INCLINATION": "64.7892",
    "RA_OF_ASC_NODE": "178.8404",
    "ARG_OF_PERICENTER": "321.9695",
    "MEAN_ANOMALY": "37.016",
    "EPHEMERIS_TYPE": "0",
    "ELEMENT_SET_NO": "999",
    "REV_AT_EPOCH": "690",
    "BSTAR": "0",
    "MEAN_MOTION_DOT": "0.01567524",
    "MEAN_MOTION_DDOT": "0",
    "FILE": "33908",
    "TLE_LINE0": "0 SPUTNIK 22 DEB",
    "TLE_LINE1": "1 00492U 62057  P 62344.10687669  .01567524 +00000-0 +00000-0 0  9997",
    "TLE_LINE2": "2 00492 064.7892 178.8404 0148084 321.9695 037.0160 16.01934566006908",
    "OBJECT_ID": "1962-057P",
    "OBJECT_NUMBER": "492",
    "SEMIMAJOR_AXIS": "6647.203",
    "PERIOD": "89.891",
    "APOGEE": "367.502",
    "PERIGEE": "170.633",
    "DECAYED": "1"
  },
  {
    "ORDINAL": "1",
    "COMMENT": "GENERATED VIA SPACETRACK.ORG API",
    "ORIGINATOR": "18 SPCS",
    "NORAD_CAT_ID": "493",
    "OBJECT_NAME": "SPUTNIK 22 DEB",
    "OBJECT_TYPE": "DEBRIS",
    "CLASSIFICATION_TYPE": "U",
    "INTLDES": "62057Q",
    "EPOCH": "1962-12-18 12:32:49",
    "EPOCH_MICROSECONDS": "419743",
    "MEAN_MOTION": "16.23415291",
    "ECCENTRICITY": "0.0121921",
    "INCLINATION": "64.9497",
    "RA_OF_ASC_NODE": "147.7451",
    "ARG_OF_PERICENTER": "319.4204",
    "MEAN_ANOMALY": "39.6781",
    "EPHEMERIS_TYPE": "0",
    "ELEMENT_SET_NO": "999",
    "REV_AT_EPOCH": "825",
    "BSTAR": "0",
    "MEAN_MOTION_DOT": "0.0196066",
    "MEAN_MOTION_DDOT": "0",
    "FILE": "33908",
    "TLE_LINE0": "0 SPUTNIK 22 DEB",
    "TLE_LINE1": "1 00493U 62057  Q 62352.52279421  .01960660 +00000-0 +00000-0 0  9994",
    "TLE_LINE2": "2 00493 064.9497 147.7451 0121921 319.4204 039.6781 16.23415291008258",
    "OBJECT_ID": "1962-057Q",
    "OBJECT_NUMBER": "493",
    "SEMIMAJOR_AXIS": "6588.436",
    "PERIOD": "88.702",
    "APOGEE": "290.628",
    "PERIGEE": "129.975",
    "DECAYED": "1"
  },
  {
    "ORDINAL": "1",
    "COMMENT": "GENERATED VIA SPACETRACK.ORG API",
    "ORIGINATOR": "18 SPCS",
    "NORAD_CAT_ID": "494",
    "OBJECT_NAME": "SPUTNIK 22 DEB",
    "OBJECT_TYPE": "DEBRIS",
    "CLASSIFICATION_TYPE": "U",
    "INTLDES": "62057R",
    "EPOCH": "1962-12-13 14:11:14",
    "EPOCH_MICROSECONDS": "683488",
    "MEAN_MOTION": "16.06169691",
    "ECCENTRICITY": "0.0129758",
    "INCLINATION": "64.9466",
    "RA_OF_ASC_NODE": "167.3787",
    "ARG_OF_PERICENTER": "321.0356",
    "MEAN_ANOMALY": "38.0385",
    "EPHEMERIS_TYPE": "0",
    "ELEMENT_SET_NO": "999",
    "REV_AT_EPOCH": "744",
    "BSTAR": "0",
    "MEAN_MOTION_DOT": "0.01772898",
    "MEAN_MOTION_DDOT": "0",
    "FILE": "33908",
    "TLE_LINE0": "0 SPUTNIK 22 DEB",
    "TLE_LINE1": "1 00494U 62057  R 62347.59114217  .01772898 +00000-0 +00000-0 0  9991",
    "TLE_LINE2": "2 00494 064.9466 167.3787 0129758 321.0356 038.0385 16.06169691007442",
    "OBJECT_ID": "1962-057R",
    "OBJECT_NUMBER": "494",
    "SEMIMAJOR_AXIS": "6635.513",
    "PERIOD": "89.654",
    "APOGEE": "343.479",
    "PERIGEE": "171.277",
    "DECAYED": "1"
  },
  {
    "ORDINAL": "1",
    "COMMENT": "GENERATED VIA SPACETRACK.ORG API",
    "ORIGINATOR": "18 SPCS",
    "NORAD_CAT_ID": "495",
    "OBJECT_NAME": "SPUTNIK 22 DEB",
    "OBJECT_TYPE": "DEBRIS",
    "CLASSIFICATION_TYPE": "U",
    "INTLDES": "62057S",
    "EPOCH": "1962-12-23 18:23:06",
    "EPOCH_MICROSECONDS": "521280",
    "MEAN_MOTION": "16.25593792",
    "ECCENTRICITY": "0.0043628",
    "INCLINATION": "64.7593",
    "RA_OF_ASC_NODE": "129.4528",
    "ARG_OF_PERICENTER": "306.4395",
    "MEAN_ANOMALY": "53.1801",
    "EPHEMERIS_TYPE": "0",
    "ELEMENT_SET_NO": "999",
    "REV_AT_EPOCH": "905",
    "BSTAR": "0",
    "MEAN_MOTION_DOT": "0.02448159",
    "MEAN_MOTION_DDOT": "0",
    "FILE": "33908",
    "TLE_LINE0": "0 SPUTNIK 22 DEB",
    "TLE_LINE1": "1 00495U 62057  S 62357.76604770  .02448159 +00000-0 +00000-0 0  9991",
    "TLE_LINE2": "2 00495 064.7593 129.4528 0043628 306.4395 053.1801 16.25593792009059",
    "OBJECT_ID": "1962-057S",
    "OBJECT_NUMBER": "495",
    "SEMIMAJOR_AXIS": "6582.549",
    "PERIOD": "88.583",
    "APOGEE": "233.132",
    "PERIGEE": "175.696",
    "DECAYED": "1"
  },
  {
    "ORDINAL": "1",
    "COMMENT": "GENERATED VIA SPACETRACK.ORG API",
    "ORIGINATOR": "18 SPCS",
    "NORAD_CAT_ID": "496",
    "OBJECT_NAME": "SPUTNIK 22 DEB",
    "OBJECT_TYPE": "DEBRIS",
    "CLASSIFICATION_TYPE": "U",
    "INTLDES": "62057T",
    "EPOCH": "1962-12-22 02:47:16",
    "EPOCH_MICROSECONDS": "310399",
    "MEAN_MOTION": "16.41904686",
    "ECCENTRICITY": "0.0024495",
    "INCLINATION": "64.6926",
    "RA_OF_ASC_NODE": "134.7762",
    "ARG_OF_PERICENTER": "323.0349",
    "MEAN_ANOMALY": "36.8179",
    "EPHEMERIS_TYPE": "0",
    "ELEMENT_SET_NO": "999",
    "REV_AT_EPOCH": "880",
    "BSTAR": "0",
    "MEAN_MOTION_DOT": "0.05533359",
    "MEAN_MOTION_DDOT": "0",
    "FILE": "33908",
    "TLE_LINE0": "0 SPUTNIK 22 DEB",
    "TLE_LINE1": "1 00496U 62057  T 62356.11616100  .05533359 +00000-0 +00000-0 0  9990",
    "TLE_LINE2": "2 00496 064.6926 134.7762 0024495 323.0349 036.8179 16.41904686008807",
    "OBJECT_ID": "1962-057T",
    "OBJECT_NUMBER": "496",
    "SEMIMAJOR_AXIS": "6538.882",
    "PERIOD": "87.703",
    "APOGEE": "176.764",
    "PERIGEE": "144.730",
    "DECAYED": "1"
  }
]
